{"type":"FeatureCollection","features":[{"type":"Feature","properties":{"DISTRICT":"Sangrur","district":"Sangrur","STATE":"Punjab","state":"Punjab","district_id":"sangrur","cgwb_class":"Over-Exploited","coastal":false},"geometry":{"type":"Polygon","coordinates":[[[76.2516,30.2458],[76.2619,30.4185],[76.087,30.5058],[75.9429,30.609],[75.7689,30.541],[75.7447,30.3565],[75.6565,30.325],[75.4758,30.2458],[75.4152,30.0662],[75.5643,29.9397],[75.7709,29.9583],[75.9222,29.9608],[76.0107,30.0684],[75.9884,30.1869],[76.2516,30.2458]]]}},{"type":"Feature","properties":{"DISTRICT":"Patiala","district":"Patiala","STATE":"Punjab","state":"Punjab","district_id":"patiala","cgwb_class":"Over-Exploited","coastal":false},"geometry":{"type":"Polygon","coordinates":[[[76.9151,30.3398],[76.6951,30.4679],[76.5735,30.5417],[76.4494,30.576],[76.3371,30.528],[76.2088,30.5325],[76.0167,30.4936],[75.8584,30.3398],[75.9899,30.1748],[76.2475,30.189],[76.3326,30.1345],[76.4537,30.0873],[76.554,30.1589],[76.7444,30.1912],[76.9151,30.3398]]]}},{"type":"Feature","properties":{"DISTRICT":"Ludhiana","district":"Ludhiana","STATE":"Punjab","state":"Punjab","district_id":"ludhiana","cgwb_class":"Over-Exploited","coastal":false},"geometry":{"type":"Polygon","coordinates":[[[76.1779,30.901],[76.0554,30.9829],[76.0247,31.0811],[75.9397,31.2107],[75.7581,31.2741],[75.5726,31.2074],[75.376,31.0999],[75.4232,30.901],[75.7017,30.8367],[75.7177,30.7508],[75.7671,30.562],[75.9575,30.5244],[76.1602,30.5751],[76.2838,30.7247],[76.1779,30.901]]]}},{"type":"Feature","properties":{"DISTRICT":"Amritsar","district":"Amritsar","STATE":"Punjab","state":"Punjab","district_id":"amritsar","cgwb_class":"Over-Exploited","coastal":false},"geometry":{"type":"Polygon","coordinates":[[[75.0641,31.634],[75.1132,31.7328],[75.1643,31.9458],[74.9912,32.0775],[74.7844,31.9618],[74.6313,31.8913],[74.5588,31.7626],[74.6909,31.634],[74.6461,31.5412],[74.5916,31.3343],[74.7537,31.1914],[74.9773,31.2424],[75.0701,31.4228],[75.1419,31.5234],[75.0641,31.634]]]}},{"type":"Feature","properties":{"DISTRICT":"Karnal","district":"Karnal","STATE":"Haryana","state":"Haryana","district_id":"karnal","cgwb_class":"Over-Exploited","coastal":false},"geometry":{"type":"Polygon","coordinates":[[[77.2904,29.6857],[77.4297,29.8694],[77.321,30.0457],[77.0585,29.9444],[76.9384,29.884],[76.8186,29.873],[76.7586,29.7827],[76.6613,29.6857],[76.5949,29.5202],[76.6773,29.3445],[76.8998,29.3405],[77.032,29.5277],[77.1205,29.5441],[77.2963,29.5578],[77.2904,29.6857]]]}},{"type":"Feature","properties":{"DISTRICT":"Hisar","district":"Hisar","STATE":"Haryana","state":"Haryana","district_id":"hisar","cgwb_class":"Critical","coastal":false},"geometry":{"type":"Polygon","coordinates":[[[76.23,29.1492],[76.196,29.3487],[75.8937,29.3376],[75.7623,29.3044],[75.6568,29.3975],[75.4644,29.431],[75.285,29.3329],[75.2708,29.1492],[75.3072,28.9749],[75.4786,28.883],[75.6853,29.01],[75.771,28.9607],[76.0057,28.8381],[76.1646,28.9629],[76.23,29.1492]]]}},{"type":"Feature","properties":{"DISTRICT":"Rohtak","district":"Rohtak","STATE":"Haryana","state":"Haryana","district_id":"rohtak","cgwb_class":"Over-Exploited","coastal":false},"geometry":{"type":"Polygon","coordinates":[[[76.9425,28.8955],[76.7958,28.9753],[76.7157,29.0153],[76.6668,29.1265],[76.5122,29.2578],[76.3137,29.2171],[76.3225,29.0153],[76.3427,28.8955],[76.3547,28.7893],[76.4935,28.7713],[76.5529,28.6894],[76.7004,28.5358],[76.8934,28.5806],[76.9432,28.7536],[76.9425,28.8955]]]}},{"type":"Feature","properties":{"DISTRICT":"Gurugram","district":"Gurugram","STATE":"Haryana","state":"Haryana","district_id":"gurugram","cgwb_class":"Over-Exploited","coastal":false},"geometry":{"type":"Polygon","coordinates":[[[77.2554,28.4595],[77.273,28.5638],[77.2259,28.6793],[77.1241,28.835],[76.9228,28.8593],[76.8713,28.6307],[76.8784,28.5222],[76.7672,28.4595],[76.7732,28.3522],[76.8174,28.2289],[76.9344,28.1043],[77.121,28.0959],[77.2346,28.2302],[77.1636,28.4015],[77.2554,28.4595]]]}},{"type":"Feature","properties":{"DISTRICT":"Jaipur","district":"Jaipur","STATE":"Rajasthan","state":"Rajasthan","district_id":"jaipur","cgwb_class":"Critical","coastal":false},"geometry":{"type":"Polygon","coordinates":[[[76.3507,26.9124],[76.251,27.1115],[76.1229,27.2876],[75.9119,27.3992],[75.7219,27.1679],[75.6666,27.0474],[75.4392,27.0619],[75.2443,26.9124],[75.2504,26.6818],[75.4688,26.5563],[75.6862,26.5175],[75.879,26.5543],[75.9201,26.7639],[76.0385,26.8045],[76.3507,26.9124]]]}},{"type":"Feature","properties":{"DISTRICT":"Jodhpur","district":"Jodhpur","STATE":"Rajasthan","state":"Rajasthan","district_id":"jodhpur","cgwb_class":"Over-Exploited","coastal":false},"geometry":{"type":"Polygon","coordinates":[[[73.6119,26.2389],[73.42,26.4098],[73.3077,26.5576],[73.0964,26.5223],[72.9565,26.5052],[72.7217,26.5792],[72.4126,26.5031],[72.3138,26.2389],[72.6239,26.066],[72.8276,26.0177],[72.9319,25.8759],[73.1019,25.9338],[73.2851,25.9456],[73.6396,25.9731],[73.6119,26.2389]]]}},{"type":"Feature","properties":{"DISTRICT":"Barmer","district":"Barmer","STATE":"Rajasthan","state":"Rajasthan","district_id":"barmer","cgwb_class":"Over-Exploited","coastal":false},"geometry":{"type":"Polygon","coordinates":[[[71.7748,25.7521],[71.7585,25.9007],[71.7003,26.0733],[71.5439,26.2572],[71.2705,26.3257],[70.9415,26.2879],[70.7103,26.0582],[71.0053,25.7521],[71.2011,25.6589],[71.1032,25.399],[71.2796,25.2144],[71.562,25.1754],[71.8815,25.2262],[72.0427,25.4802],[71.7748,25.7521]]]}},{"type":"Feature","properties":{"DISTRICT":"Bikaner","district":"Bikaner","STATE":"Rajasthan","state":"Rajasthan","district_id":"bikaner","cgwb_class":"Critical","coastal":false},"geometry":{"type":"Polygon","coordinates":[[[73.6254,28.0229],[73.7898,28.2261],[73.7786,28.5395],[73.4586,28.5902],[73.1851,28.5135],[72.9385,28.4363],[72.997,28.1568],[73.0707,28.0229],[72.8338,27.8196],[72.857,27.5194],[73.1496,27.3954],[73.4408,27.5242],[73.5964,27.708],[73.7227,27.8483],[73.6254,28.0229]]]}},{"type":"Feature","properties":{"DISTRICT":"Ajmer","district":"Ajmer","STATE":"Rajasthan","state":"Rajasthan","district_id":"ajmer","cgwb_class":"Semi-Critical","coastal":false},"geometry":{"type":"Polygon","coordinates":[[[75.0921,26.4499],[75.2109,26.6961],[74.9368,26.7832],[74.7038,26.7006],[74.5672,26.7352],[74.4579,26.6542],[74.3768,26.5634],[74.1912,26.4499],[74.1293,26.2298],[74.2972,26.0651],[74.5667,26.1626],[74.6852,26.2723],[74.8517,26.2121],[74.9644,26.31],[75.0921,26.4499]]]}},{"type":"Feature","properties":{"DISTRICT":"Kota","district":"Kota","STATE":"Rajasthan","state":"Rajasthan","district_id":"kota","cgwb_class":"Semi-Critical","coastal":false},"geometry":{"type":"Polygon","coordinates":[[[76.4617,25.2138],[76.2421,25.3782],[75.9857,25.351],[75.9212,25.4374],[75.7842,25.5335],[75.5854,25.5308],[75.428,25.4041],[75.3764,25.2138],[75.4319,25.0252],[75.699,25.0257],[75.8317,25.0826],[75.948,24.8839],[76.1737,24.8634],[76.2907,25.0282],[76.4617,25.2138]]]}},{"type":"Feature","properties":{"DISTRICT":"Nagaur","district":"Nagaur","STATE":"Rajasthan","state":"Rajasthan","district_id":"nagaur","cgwb_class":"Over-Exploited","coastal":false},"geometry":{"type":"Polygon","coordinates":[[[74.1439,27.2006],[73.9403,27.2883],[73.9291,27.4165],[73.85,27.6467],[73.5847,27.7884],[73.377,27.6004],[73.362,27.3606],[73.2925,27.2006],[73.4481,27.0775],[73.5861,27.034],[73.6229,26.7619],[73.8862,26.6133],[74.1153,26.777],[74.1394,27.0276],[74.1439,27.2006]]]}},{"type":"Feature","properties":{"DISTRICT":"Sikar","district":"Sikar","STATE":"Rajasthan","state":"Rajasthan","district_id":"sikar","cgwb_class":"Critical","coastal":false},"geometry":{"type":"Polygon","coordinates":[[[75.3983,27.6094],[75.4262,27.7316],[75.4092,27.9086],[75.2637,28.09],[75.0485,27.9643],[75.0145,27.7488],[74.9052,27.7095],[74.8355,27.6094],[74.8614,27.4906],[74.8687,27.3081],[75.0276,27.1735],[75.2397,27.222],[75.305,27.426],[75.2801,27.5496],[75.3983,27.6094]]]}},{"type":"Feature","properties":{"DISTRICT":"Delhi","district":"Delhi","STATE":"Delhi","state":"Delhi","district_id":"delhi_nct","cgwb_class":"Over-Exploited","coastal":false},"geometry":{"type":"Polygon","coordinates":[[[77.4447,28.6139],[77.4168,28.7018],[77.379,28.8011],[77.2528,28.7822],[77.1909,28.6835],[77.1279,28.7031],[77.017,28.6951],[76.9609,28.6139],[76.9833,28.5185],[77.0699,28.4608],[77.1626,28.4353],[77.2384,28.5008],[77.2597,28.5581],[77.3927,28.5363],[77.4447,28.6139]]]}},{"type":"Feature","properties":{"DISTRICT":"Agra","district":"Agra","STATE":"Uttar Pradesh","state":"Uttar Pradesh","district_id":"agra","cgwb_class":"Semi-Critical","coastal":false},"geometry":{"type":"Polygon","coordinates":[[[78.3806,27.1767],[78.3502,27.3233],[78.2031,27.3942],[78.0509,27.3436],[77.9433,27.4291],[77.7195,27.4986],[77.5077,27.3911],[77.5569,27.1767],[77.7585,27.0698],[77.8182,26.9648],[77.9437,26.9256],[78.0612,26.9696],[78.2816,26.8716],[78.5228,26.9562],[78.3806,27.1767]]]}},{"type":"Feature","properties":{"DISTRICT":"Lucknow","district":"Lucknow","STATE":"Uttar Pradesh","state":"Uttar Pradesh","district_id":"lucknow","cgwb_class":"Semi-Critical","coastal":false},"geometry":{"type":"Polygon","coordinates":[[[81.1827,26.8467],[81.1875,26.9504],[81.1293,27.0516],[81.0284,27.1682],[80.8469,27.235],[80.6232,27.2081],[80.6025,26.9944],[80.7864,26.8467],[80.7322,26.7547],[80.7238,26.5979],[80.8665,26.5353],[81.0452,26.4598],[81.2469,26.5102],[81.3,26.6947],[81.1827,26.8467]]]}},{"type":"Feature","properties":{"DISTRICT":"Varanasi","district":"Varanasi","STATE":"Uttar Pradesh","state":"Uttar Pradesh","district_id":"varanasi","cgwb_class":"Safe","coastal":false},"geometry":{"type":"Polygon","coordinates":[[[83.2331,25.3176],[83.3324,25.4737],[83.2464,25.6265],[83.0568,25.6458],[82.8857,25.6669],[82.7818,25.5354],[82.8554,25.3692],[82.7423,25.3176],[82.6035,25.1564],[82.6967,25.0034],[82.8826,24.9561],[83.0476,25.0257],[83.159,25.1078],[83.1812,25.2274],[83.2331,25.3176]]]}},{"type":"Feature","properties":{"DISTRICT":"Prayagraj","district":"Prayagraj","STATE":"Uttar Pradesh","state":"Uttar Pradesh","district_id":"allahabad","cgwb_class":"Safe","coastal":false},"geometry":{"type":"Polygon","coordinates":[[[82.3768,25.4358],[82.3297,25.646],[82.0503,25.6668],[81.9136,25.7022],[81.7785,25.7041],[81.7083,25.5921],[81.551,25.5642],[81.3515,25.4358],[81.3626,25.2254],[81.5881,25.1434],[81.7961,25.237],[81.9042,25.2067],[82.0516,25.2034],[82.1111,25.3207],[82.3768,25.4358]]]}},{"type":"Feature","properties":{"DISTRICT":"Meerut","district":"Meerut","STATE":"Uttar Pradesh","state":"Uttar Pradesh","district_id":"meerut","cgwb_class":"Critical","coastal":false},"geometry":{"type":"Polygon","coordinates":[[[78.1867,28.9845],[77.9163,29.0729],[77.8232,29.1126],[77.7693,29.2255],[77.6326,29.2675],[77.4574,29.2577],[77.3123,29.1505],[77.2531,28.9845],[77.4018,28.8562],[77.621,28.8908],[77.6566,28.7938],[77.7959,28.6413],[77.9533,28.7137],[78.0878,28.8238],[78.1867,28.9845]]]}},{"type":"Feature","properties":{"DISTRICT":"Kanpur","district":"Kanpur","STATE":"Uttar Pradesh","state":"Uttar Pradesh","district_id":"kanpur","cgwb_class":"Semi-Critical","coastal":false},"geometry":{"type":"Polygon","coordinates":[[[80.5501,26.4499],[80.5012,26.5229],[80.5417,26.6854],[80.4398,26.873],[80.218,26.8968],[80.0888,26.7228],[80.0005,26.5928],[80.0066,26.4499],[80.1805,26.3846],[80.1559,26.2523],[80.2181,26.0035],[80.4466,25.9998],[80.5971,26.1521],[80.6208,26.3253],[80.5501,26.4499]]]}},{"type":"Feature","properties":{"DISTRICT":"Shimla","district":"Shimla","STATE":"Himachal Pradesh","state":"Himachal Pradesh","district_id":"shimla","cgwb_class":"Safe","coastal":false},"geometry":{"type":"Polygon","coordinates":[[[77.4575,31.1048],[77.5347,31.2538],[77.5258,31.4832],[77.2974,31.5699],[77.1057,31.3586],[77.017,31.2728],[76.8749,31.2279],[76.8846,31.1048],[76.8267,30.9618],[76.8325,30.7388],[77.0533,30.6544],[77.2605,30.7782],[77.3004,30.9684],[77.4001,31.0113],[77.4575,31.1048]]]}},{"type":"Feature","properties":{"DISTRICT":"Ahmedabad","district":"Ahmedabad","STATE":"Gujarat","state":"Gujarat","district_id":"ahmedabad","cgwb_class":"Critical","coastal":false},"geometry":{"type":"Polygon","coordinates":[[[73.0105,23.0225],[73.0407,23.2305],[72.8853,23.3847],[72.6229,23.2302],[72.5313,23.184],[72.3489,23.2793],[72.1801,23.1959],[72.093,23.0225],[72.138,22.8304],[72.2931,22.7013],[72.4949,22.714],[72.6069,22.8792],[72.7342,22.8346],[73.0326,22.8181],[73.0105,23.0225]]]}},{"type":"Feature","properties":{"DISTRICT":"Surat","district":"Surat","STATE":"Gujarat","state":"Gujarat","district_id":"surat","cgwb_class":"Semi-Critical","coastal":true},"geometry":{"type":"Polygon","coordinates":[[[73.1836,21.1702],[73.1495,21.3132],[72.954,21.3139],[72.8724,21.3389],[72.7521,21.4929],[72.5355,21.5158],[72.4093,21.3596],[72.5054,21.1702],[72.5861,21.0602],[72.6516,20.9603],[72.7876,20.9923],[72.8946,20.9109],[73.1437,20.8047],[73.2612,20.9771],[73.1836,21.1702]]]}},{"type":"Feature","properties":{"DISTRICT":"Rajkot","district":"Rajkot","STATE":"Gujarat","state":"Gujarat","district_id":"rajkot","cgwb_class":"Critical","coastal":false},"geometry":{"type":"Polygon","coordinates":[[[71.1033,22.3039],[71.0564,22.4171],[71.0081,22.5427],[70.9014,22.7062],[70.6798,22.8001],[70.4776,22.6804],[70.5621,22.4109],[70.6048,22.3039],[70.4876,22.1637],[70.5798,22.0459],[70.7105,21.9322],[70.9235,21.8124],[71.1123,21.9441],[71.1059,22.1686],[71.1033,22.3039]]]}},{"type":"Feature","properties":{"DISTRICT":"Kutch","district":"Kutch","STATE":"Gujarat","state":"Gujarat","district_id":"kutch","cgwb_class":"Over-Exploited","coastal":false},"geometry":{"type":"Polygon","coordinates":[[[70.492,23.7337],[70.5898,24.0556],[70.3451,24.2909],[70.0338,24.432],[69.6907,24.4115],[69.6305,23.9969],[69.6028,23.847],[69.1876,23.7337],[69.1112,23.4037],[69.3506,23.1493],[69.6911,23.0576],[70.0024,23.1614],[70.1856,23.3596],[70.1452,23.6079],[70.492,23.7337]]]}},{"type":"Feature","properties":{"DISTRICT":"Gandhinagar","district":"Gandhinagar","STATE":"Gujarat","state":"Gujarat","district_id":"gandhinagar","cgwb_class":"Semi-Critical","coastal":false},"geometry":{"type":"Polygon","coordinates":[[[73.0327,23.2156],[72.9035,23.3336],[72.7729,23.3723],[72.6902,23.4303],[72.6003,23.3631],[72.5361,23.3318],[72.3641,23.3363],[72.2602,23.2156],[72.33,23.0798],[72.4992,23.0569],[72.5997,23.0657],[72.6856,23.0196],[72.7576,23.0764],[72.8526,23.1201],[73.0327,23.2156]]]}},{"type":"Feature","properties":{"DISTRICT":"Junagadh","district":"Junagadh","STATE":"Gujarat","state":"Gujarat","district_id":"junagadh","cgwb_class":"Semi-Critical","coastal":false},"geometry":{"type":"Polygon","coordinates":[[[70.8194,21.5222],[70.6281,21.5984],[70.6237,21.7156],[70.5262,21.8008],[70.3795,21.8416],[70.1803,21.846],[70.0185,21.719],[70.0206,21.5222],[70.2563,21.4319],[70.3599,21.4079],[70.3799,21.2044],[70.5474,21.1572],[70.7078,21.2306],[70.8953,21.3262],[70.8194,21.5222]]]}},{"type":"Feature","properties":{"DISTRICT":"Pune","district":"Pune","STATE":"Maharashtra","state":"Maharashtra","district_id":"pune","cgwb_class":"Semi-Critical","coastal":false},"geometry":{"type":"Polygon","coordinates":[[[74.0264,18.5204],[74.1143,18.638],[74.1356,18.852],[73.9767,19.0189],[73.748,18.972],[73.5951,18.8315],[73.4861,18.6896],[73.6209,18.5204],[73.6856,18.4423],[73.5706,18.1802],[73.7299,17.9938],[73.9667,18.0635],[74.1195,18.208],[74.1617,18.3811],[74.0264,18.5204]]]}},{"type":"Feature","properties":{"DISTRICT":"Nagpur","district":"Nagpur","STATE":"Maharashtra","state":"Maharashtra","district_id":"nagpur","cgwb_class":"Semi-Critical","coastal":false},"geometry":{"type":"Polygon","coordinates":[[[79.4641,21.1458],[79.5954,21.3736],[79.5099,21.639],[79.1963,21.5875],[79.0229,21.4126],[78.8599,21.4128],[78.7895,21.28],[78.7627,21.1458],[78.5859,20.9202],[78.6806,20.6691],[78.9692,20.6595],[79.1615,20.8462],[79.2392,20.9692],[79.4359,20.9896],[79.4641,21.1458]]]}},{"type":"Feature","properties":{"DISTRICT":"Nashik","district":"Nashik","STATE":"Maharashtra","state":"Maharashtra","district_id":"nashik","cgwb_class":"Critical","coastal":false},"geometry":{"type":"Polygon","coordinates":[[[74.2978,19.9975],[74.3211,20.2379],[74.0273,20.2774],[73.8268,20.1497],[73.7236,20.2703],[73.5316,20.3018],[73.3875,20.1795],[73.2729,19.9975],[73.3274,19.7883],[73.5196,19.6791],[73.7366,19.7783],[73.8291,19.8358],[74.0578,19.6817],[74.2693,19.7805],[74.2978,19.9975]]]}},{"type":"Feature","properties":{"DISTRICT":"Aurangabad","district":"Aurangabad","STATE":"Maharashtra","state":"Maharashtra","district_id":"aurangabad","cgwb_class":"Critical","coastal":false},"geometry":{"type":"Polygon","coordinates":[[[75.8143,19.8762],[75.6394,20.0103],[75.4478,19.9994],[75.415,20.1718],[75.2297,20.3443],[74.9916,20.2909],[74.9121,20.0715],[74.9849,19.8762],[75.0197,19.7296],[75.1773,19.6805],[75.2925,19.6669],[75.454,19.42],[75.7272,19.4234],[75.7688,19.6835],[75.8143,19.8762]]]}},{"type":"Feature","properties":{"DISTRICT":"Solapur","district":"Solapur","STATE":"Maharashtra","state":"Maharashtra","district_id":"solapur","cgwb_class":"Critical","coastal":false},"geometry":{"type":"Polygon","coordinates":[[[76.194,17.6805],[76.1348,17.7853],[76.1367,17.9557],[76.0182,18.1473],[75.7839,18.1918],[75.6673,17.9662],[75.7301,17.7614],[75.6221,17.6805],[75.601,17.5404],[75.7032,17.4378],[75.798,17.2279],[76.028,17.1731],[76.1581,17.3798],[76.1239,17.5807],[76.194,17.6805]]]}},{"type":"Feature","properties":{"DISTRICT":"Latur","district":"Latur","STATE":"Maharashtra","state":"Maharashtra","district_id":"latur","cgwb_class":"Over-Exploited","coastal":false},"geometry":{"type":"Polygon","coordinates":[[[76.9186,18.4088],[76.9255,18.5756],[76.8146,18.7112],[76.657,18.8104],[76.4953,18.6794],[76.4858,18.4975],[76.3326,18.5129],[76.1587,18.4088],[76.1981,18.2433],[76.3006,18.0996],[76.4749,18.0534],[76.6289,18.124],[76.6837,18.2621],[76.7111,18.3399],[76.9186,18.4088]]]}},{"type":"Feature","properties":{"DISTRICT":"Bhopal","district":"Bhopal","STATE":"Madhya Pradesh","state":"Madhya Pradesh","district_id":"bhopal","cgwb_class":"Semi-Critical","coastal":false},"geometry":{"type":"Polygon","coordinates":[[[77.9057,23.2599],[77.7237,23.3976],[77.6323,23.513],[77.4773,23.5204],[77.3745,23.4134],[77.2117,23.4913],[76.958,23.461],[76.9057,23.2599],[77.0541,23.1013],[77.2448,23.0666],[77.3498,23.0072],[77.4745,23.0107],[77.571,23.0775],[77.8306,23.0749],[77.9057,23.2599]]]}},{"type":"Feature","properties":{"DISTRICT":"Indore","district":"Indore","STATE":"Madhya Pradesh","state":"Madhya Pradesh","district_id":"indore","cgwb_class":"Critical","coastal":false},"geometry":{"type":"Polygon","coordinates":[[[76.0889,22.7196],[76.0623,22.8105],[76.0366,22.9265],[75.9197,22.9701],[75.7737,23.059],[75.563,23.0605],[75.4358,22.907],[75.5384,22.7196],[75.7227,22.6596],[75.7017,22.5392],[75.775,22.3856],[75.9352,22.4066],[76.1327,22.4015],[76.2892,22.5279],[76.0889,22.7196]]]}},{"type":"Feature","properties":{"DISTRICT":"Gwalior","district":"Gwalior","STATE":"Madhya Pradesh","state":"Madhya Pradesh","district_id":"gwalior","cgwb_class":"Critical","coastal":false},"geometry":{"type":"Polygon","coordinates":[[[78.3788,26.2183],[78.4999,26.3553],[78.4611,26.5314],[78.2888,26.6351],[78.0875,26.5928],[77.9246,26.5088],[77.9078,26.3371],[78.0423,26.2183],[77.9143,26.1023],[77.8661,25.862],[78.0772,25.8034],[78.2785,25.8423],[78.4187,25.9529],[78.45,26.1028],[78.3788,26.2183]]]}},{"type":"Feature","properties":{"DISTRICT":"Jabalpur","district":"Jabalpur","STATE":"Madhya Pradesh","state":"Madhya Pradesh","district_id":"jabalpur","cgwb_class":"Semi-Critical","coastal":false},"geometry":{"type":"Polygon","coordinates":[[[80.4059,23.1815],[80.4956,23.4069],[80.3147,23.5599],[80.0584,23.4715],[79.9183,23.4559],[79.7863,23.4122],[79.7784,23.2736],[79.6077,23.1815],[79.4679,22.952],[79.6565,22.8013],[79.9023,22.8426],[80.0407,22.9626],[80.1594,22.9821],[80.3021,23.0418],[80.4059,23.1815]]]}},{"type":"Feature","properties":{"DISTRICT":"Krishna","district":"Krishna","STATE":"Andhra Pradesh","state":"Andhra Pradesh","district_id":"krishna","cgwb_class":"Semi-Critical","coastal":true},"geometry":{"type":"Polygon","coordinates":[[[81.3207,16.6096],[81.1982,16.8296],[80.8683,16.7861],[80.7722,16.823],[80.6352,16.9714],[80.4703,16.9113],[80.2856,16.8107],[80.1583,16.6096],[80.2648,16.3989],[80.5082,16.3534],[80.6835,16.4505],[80.7895,16.3239],[81.0441,16.2219],[81.1488,16.4124],[81.3207,16.6096]]]}},{"type":"Feature","properties":{"DISTRICT":"Guntur","district":"Guntur","STATE":"Andhra Pradesh","state":"Andhra Pradesh","district_id":"guntur","cgwb_class":"Semi-Critical","coastal":false},"geometry":{"type":"Polygon","coordinates":[[[80.8675,16.3067],[80.6105,16.3871],[80.5682,16.4652],[80.5327,16.7112],[80.3198,16.7974],[80.1166,16.6917],[80.058,16.4816],[80.0662,16.3067],[80.1544,16.1763],[80.3205,16.1671],[80.3599,15.9845],[80.5686,15.7513],[80.7632,15.9135],[80.8021,16.1377],[80.8675,16.3067]]]}},{"type":"Feature","properties":{"DISTRICT":"Kurnool","district":"Kurnool","STATE":"Andhra Pradesh","state":"Andhra Pradesh","district_id":"kurnool","cgwb_class":"Over-Exploited","coastal":false},"geometry":{"type":"Polygon","coordinates":[[[78.2935,15.8281],[78.3155,15.957],[78.3479,16.2028],[78.1718,16.395],[77.9188,16.3276],[77.8517,16.052],[77.8,15.938],[77.674,15.8281],[77.7528,15.6963],[77.7684,15.5038],[77.8983,15.2422],[78.1562,15.3269],[78.251,15.5703],[78.2433,15.7327],[78.2935,15.8281]]]}},{"type":"Feature","properties":{"DISTRICT":"Nellore","district":"Nellore","STATE":"Andhra Pradesh","state":"Andhra Pradesh","district_id":"nellore","cgwb_class":"Critical","coastal":true},"geometry":{"type":"Polygon","coordinates":[[[80.4372,14.4426],[80.4397,14.654],[80.3274,14.8566],[80.0928,14.8938],[79.9399,14.6402],[79.8603,14.5958],[79.5972,14.6241],[79.5163,14.4426],[79.5461,14.2372],[79.6557,14.0409],[79.8881,14.0251],[80.0534,14.1586],[80.1012,14.3034],[80.2791,14.3061],[80.4372,14.4426]]]}},{"type":"Feature","properties":{"DISTRICT":"Visakhapatnam","district":"Visakhapatnam","STATE":"Andhra Pradesh","state":"Andhra Pradesh","district_id":"visakhapatnam","cgwb_class":"Semi-Critical","coastal":true},"geometry":{"type":"Polygon","coordinates":[[[83.6719,17.6868],[83.5779,17.8517],[83.463,17.9789],[83.265,17.8811],[83.1669,17.902],[82.9137,18.0509],[82.7079,17.9211],[82.7211,17.6868],[82.8789,17.531],[83.0246,17.4552],[83.1488,17.3958],[83.2733,17.4581],[83.4538,17.4056],[83.7827,17.4279],[83.6719,17.6868]]]}},{"type":"Feature","properties":{"DISTRICT":"Hyderabad","district":"Hyderabad","STATE":"Telangana","state":"Telangana","district_id":"hyderabad","cgwb_class":"Over-Exploited","coastal":false},"geometry":{"type":"Polygon","coordinates":[[[78.6696,17.385],[78.7037,17.4847],[78.6218,17.5467],[78.5424,17.6181],[78.4025,17.7372],[78.226,17.697],[78.1775,17.5271],[78.3035,17.385],[78.3444,17.3196],[78.3129,17.177],[78.4242,17.1238],[78.5575,17.0891],[78.7554,17.0634],[78.8038,17.2393],[78.6696,17.385]]]}},{"type":"Feature","properties":{"DISTRICT":"Rangareddy","district":"Rangareddy","STATE":"Telangana","state":"Telangana","district_id":"rangareddy","cgwb_class":"Critical","coastal":false},"geometry":{"type":"Polygon","coordinates":[[[78.5434,17.36],[78.6027,17.5129],[78.5324,17.674],[78.367,17.7655],[78.1772,17.7479],[78.0448,17.6296],[78.1114,17.4329],[78.097,17.36],[77.901,17.1904],[77.9841,17.0178],[78.1789,16.9792],[78.3617,16.9764],[78.4762,17.1132],[78.4808,17.2631],[78.5434,17.36]]]}},{"type":"Feature","properties":{"DISTRICT":"Warangal","district":"Warangal","STATE":"Telangana","state":"Telangana","district_id":"warangal","cgwb_class":"Semi-Critical","coastal":false},"geometry":{"type":"Polygon","coordinates":[[[80.0498,17.9689],[80.0509,18.1781],[79.8316,18.2521],[79.6573,18.2321],[79.525,18.2568],[79.4583,18.1309],[79.3842,18.0651],[79.1301,17.9689],[79.1272,17.755],[79.3432,17.6696],[79.5306,17.7041],[79.6463,17.7514],[79.7711,17.7577],[79.8461,17.8535],[80.0498,17.9689]]]}},{"type":"Feature","properties":{"DISTRICT":"Bengaluru Urban","district":"Bengaluru Urban","STATE":"Karnataka","state":"Karnataka","district_id":"bengaluru_urban","cgwb_class":"Over-Exploited","coastal":false},"geometry":{"type":"Polygon","coordinates":[[[78.0737,12.9716],[77.8564,13.0945],[77.692,13.0906],[77.6534,13.2227],[77.5284,13.2544],[77.397,13.2131],[77.2014,13.1561],[77.1474,12.9716],[77.2895,12.8284],[77.48,12.8316],[77.5574,12.8129],[77.6706,12.647],[77.8312,12.6825],[77.9211,12.8184],[78.0737,12.9716]]]}},{"type":"Feature","properties":{"DISTRICT":"Tumkur","district":"Tumkur","STATE":"Karnataka","state":"Karnataka","district_id":"tumkur","cgwb_class":"Critical","coastal":false},"geometry":{"type":"Polygon","coordinates":[[[77.3954,13.3379],[77.232,13.3993],[77.3088,13.5915],[77.2079,13.7934],[76.9902,13.8104],[76.805,13.699],[76.7333,13.5102],[76.7471,13.3379],[76.9077,13.2473],[76.9653,13.1723],[76.9901,12.8652],[77.2271,12.8003],[77.3725,13.0066],[77.4631,13.1682],[77.3954,13.3379]]]}},{"type":"Feature","properties":{"DISTRICT":"Chitradurga","district":"Chitradurga","STATE":"Karnataka","state":"Karnataka","district_id":"chitradurga","cgwb_class":"Critical","coastal":false},"geometry":{"type":"Polygon","coordinates":[[[76.6293,14.2296],[76.7778,14.407],[76.7687,14.6804],[76.5322,14.8003],[76.3025,14.6342],[76.2252,14.4394],[76.0852,14.3755],[76.0708,14.2296],[76.0986,14.0899],[76.0324,13.7854],[76.256,13.6274],[76.4949,13.8172],[76.5802,14.0078],[76.6354,14.1187],[76.6293,14.2296]]]}},{"type":"Feature","properties":{"DISTRICT":"Bellary","district":"Bellary","STATE":"Karnataka","state":"Karnataka","district_id":"bellary","cgwb_class":"Semi-Critical","coastal":false},"geometry":{"type":"Polygon","coordinates":[[[77.38,15.1394],[77.3962,15.3601],[77.2521,15.5397],[76.9932,15.443],[76.8871,15.2845],[76.7189,15.3845],[76.5281,15.3222],[76.4968,15.1394],[76.4538,14.922],[76.6066,14.7584],[76.8426,14.806],[76.9681,14.9419],[77.0567,14.9757],[77.3281,14.9503],[77.38,15.1394]]]}},{"type":"Feature","properties":{"DISTRICT":"Bidar","district":"Bidar","STATE":"Karnataka","state":"Karnataka","district_id":"bidar","cgwb_class":"Safe","coastal":false},"geometry":{"type":"Polygon","coordinates":[[[77.8766,17.9104],[77.848,18.0608],[77.6729,18.0929],[77.5491,18.0323],[77.4508,18.1985],[77.2318,18.2542],[77.1294,18.0893],[77.1451,17.9104],[77.2501,17.7868],[77.354,17.7125],[77.4727,17.7136],[77.5694,17.704],[77.7987,17.5777],[77.9805,17.6993],[77.8766,17.9104]]]}},{"type":"Feature","properties":{"DISTRICT":"Mysuru","district":"Mysuru","STATE":"Karnataka","state":"Karnataka","district_id":"mysuru","cgwb_class":"Semi-Critical","coastal":false},"geometry":{"type":"Polygon","coordinates":[[[76.9296,12.2958],[76.9003,12.4186],[76.7897,12.4799],[76.7283,12.6762],[76.5208,12.8037],[76.3337,12.6703],[76.3434,12.4351],[76.4433,12.2958],[76.3826,12.175],[76.4245,12.0325],[76.5653,11.9784],[76.7509,11.8186],[76.9734,11.8866],[76.9348,12.1568],[76.9296,12.2958]]]}},{"type":"Feature","properties":{"DISTRICT":"Chennai","district":"Chennai","STATE":"Tamil Nadu","state":"Tamil Nadu","district_id":"chennai","cgwb_class":"Over-Exploited","coastal":true},"geometry":{"type":"Polygon","coordinates":[[[80.5187,13.0827],[80.5188,13.1991],[80.4711,13.3275],[80.3452,13.4006],[80.202,13.3761],[80.1483,13.2322],[80.1832,13.1238],[80.0463,13.0827],[79.9666,12.94],[80.082,12.8523],[80.1995,12.7787],[80.3383,12.7944],[80.3973,12.9281],[80.3966,13.0236],[80.5187,13.0827]]]}},{"type":"Feature","properties":{"DISTRICT":"Coimbatore","district":"Coimbatore","STATE":"Tamil Nadu","state":"Tamil Nadu","district_id":"coimbatore","cgwb_class":"Semi-Critical","coastal":false},"geometry":{"type":"Polygon","coordinates":[[[77.4272,11.0168],[77.3491,11.2027],[77.1555,11.2626],[77.0248,11.3135],[76.8989,11.2617],[76.8532,11.1431],[76.6472,11.1627],[76.4435,11.0168],[76.5615,10.8304],[76.7461,10.7587],[76.8974,10.7658],[77.0112,10.7784],[77.1158,10.8198],[77.2042,10.8994],[77.4272,11.0168]]]}},{"type":"Feature","properties":{"DISTRICT":"Madurai","district":"Madurai","STATE":"Tamil Nadu","state":"Tamil Nadu","district_id":"madurai","cgwb_class":"Critical","coastal":false},"geometry":{"type":"Polygon","coordinates":[[[78.5143,9.9252],[78.2945,10.0081],[78.2541,10.0911],[78.184,10.2024],[78.0614,10.1773],[77.8869,10.2129],[77.6924,10.128],[77.7227,9.9252],[77.8929,9.8176],[78.0235,9.8063],[78.0633,9.6815],[78.2004,9.5775],[78.3294,9.6663],[78.4991,9.7453],[78.5143,9.9252]]]}},{"type":"Feature","properties":{"DISTRICT":"Salem","district":"Salem","STATE":"Tamil Nadu","state":"Tamil Nadu","district_id":"salem","cgwb_class":"Critical","coastal":false},"geometry":{"type":"Polygon","coordinates":[[[78.2909,11.6643],[78.3242,11.7484],[78.3799,11.9516],[78.2365,12.0526],[78.0517,12.0691],[77.8918,11.9764],[77.8335,11.8117],[77.9054,11.6643],[78.0155,11.6028],[77.9507,11.4245],[78.036,11.1922],[78.2383,11.2681],[78.3771,11.3805],[78.4641,11.5143],[78.2909,11.6643]]]}},{"type":"Feature","properties":{"DISTRICT":"Tirunelveli","district":"Tirunelveli","STATE":"Tamil Nadu","state":"Tamil Nadu","district_id":"tirunelveli","cgwb_class":"Semi-Critical","coastal":false},"geometry":{"type":"Polygon","coordinates":[[[77.9943,8.7139],[78.1412,8.8969],[78.0585,9.0879],[77.849,9.1136],[77.6954,8.9793],[77.597,8.9119],[77.5125,8.8301],[77.5433,8.7139],[77.4303,8.5585],[77.4253,8.3031],[77.6631,8.3084],[77.8191,8.4435],[77.8991,8.5374],[77.977,8.6091],[77.9943,8.7139]]]}},{"type":"Feature","properties":{"DISTRICT":"Vellore","district":"Vellore","STATE":"Tamil Nadu","state":"Tamil Nadu","district_id":"vellore","cgwb_class":"Critical","coastal":false},"geometry":{"type":"Polygon","coordinates":[[[79.5556,12.9165],[79.548,13.1115],[79.3607,13.1954],[79.1697,13.0753],[79.0899,13.0986],[78.925,13.1701],[78.8414,13.0532],[78.7472,12.9165],[78.7131,12.7196],[78.9071,12.641],[79.0839,12.709],[79.1673,12.7679],[79.3029,12.7083],[79.5099,12.7394],[79.5556,12.9165]]]}},{"type":"Feature","properties":{"DISTRICT":"Thiruvananthapuram","district":"Thiruvananthapuram","STATE":"Kerala","state":"Kerala","district_id":"thiruvananthapuram","cgwb_class":"Safe","coastal":true},"geometry":{"type":"Polygon","coordinates":[[[77.2871,8.5241],[77.2058,8.6523],[77.0187,8.6259],[76.9772,8.7002],[76.8518,8.8916],[76.6859,8.835],[76.6068,8.6812],[76.607,8.5241],[76.697,8.41],[76.8056,8.3616],[76.9,8.3656],[77.0041,8.2318],[77.2329,8.1567],[77.2791,8.361],[77.2871,8.5241]]]}},{"type":"Feature","properties":{"DISTRICT":"Palakkad","district":"Palakkad","STATE":"Kerala","state":"Kerala","district_id":"palakkad","cgwb_class":"Safe","coastal":false},"geometry":{"type":"Polygon","coordinates":[[[76.9357,10.7867],[76.8313,10.8702],[76.8149,10.984],[76.7535,11.2116],[76.5509,11.2338],[76.4282,11.0659],[76.4509,10.8832],[76.4438,10.7867],[76.3983,10.6653],[76.49,10.5837],[76.5743,10.44],[76.7681,10.299],[76.8934,10.4927],[76.8507,10.694],[76.9357,10.7867]]]}},{"type":"Feature","properties":{"DISTRICT":"Kozhikode","district":"Kozhikode","STATE":"Kerala","state":"Kerala","district_id":"kozhikode","cgwb_class":"Safe","coastal":true},"geometry":{"type":"Polygon","coordinates":[[[76.0702,11.2588],[76.0816,11.4011],[76.0348,11.5717],[75.8697,11.6423],[75.712,11.5525],[75.6899,11.3701],[75.6238,11.3328],[75.4259,11.2588],[75.4561,11.1056],[75.5576,10.9848],[75.6894,10.8678],[75.8484,10.9666],[75.8927,11.1206],[75.9282,11.189],[76.0702,11.2588]]]}},{"type":"Feature","properties":{"DISTRICT":"Patna","district":"Patna","STATE":"Bihar","state":"Bihar","district_id":"patna","cgwb_class":"Safe","coastal":false},"geometry":{"type":"Polygon","coordinates":[[[85.6319,25.5941],[85.5145,25.7578],[85.3605,25.8462],[85.2107,25.8828],[85.0962,25.7575],[84.9859,25.7656],[84.6813,25.7923],[84.6153,25.5941],[84.7689,25.434],[84.9205,25.3486],[85.0747,25.3457],[85.1957,25.3647],[85.2976,25.4131],[85.4948,25.4389],[85.6319,25.5941]]]}},{"type":"Feature","properties":{"DISTRICT":"Gaya","district":"Gaya","STATE":"Bihar","state":"Bihar","district_id":"gaya","cgwb_class":"Safe","coastal":false},"geometry":{"type":"Polygon","coordinates":[[[85.3079,24.796],[85.1904,24.8792],[85.1858,25.0073],[85.06,25.0339],[84.9307,25.0723],[84.689,25.1503],[84.5538,24.9912],[84.6544,24.796],[84.8097,24.7127],[84.8678,24.6453],[84.9241,24.4933],[85.0792,24.482],[85.2489,24.5129],[85.4739,24.5889],[85.3079,24.796]]]}},{"type":"Feature","properties":{"DISTRICT":"Muzaffarpur","district":"Muzaffarpur","STATE":"Bihar","state":"Bihar","district_id":"muzaffarpur","cgwb_class":"Safe","coastal":false},"geometry":{"type":"Polygon","coordinates":[[[85.5322,26.1197],[85.6803,26.2448],[85.6398,26.3998],[85.4822,26.4784],[85.289,26.521],[85.1322,26.4111],[85.1134,26.2397],[85.2208,26.1197],[85.1994,26.0369],[85.1108,25.8042],[85.2866,25.709],[85.4778,25.7783],[85.6514,25.8265],[85.6776,25.9958],[85.5322,26.1197]]]}},{"type":"Feature","properties":{"DISTRICT":"Ranchi","district":"Ranchi","STATE":"Jharkhand","state":"Jharkhand","district_id":"ranchi","cgwb_class":"Safe","coastal":false},"geometry":{"type":"Polygon","coordinates":[[[85.6851,23.3441],[85.7659,23.5459],[85.6108,23.6909],[85.3938,23.6829],[85.2448,23.6049],[85.1244,23.5574],[85.1042,23.4349],[85.0365,23.3441],[84.8371,23.1352],[84.9776,22.9619],[85.2301,23.0244],[85.3738,23.0859],[85.4701,23.1593],[85.5586,23.234],[85.6851,23.3441]]]}},{"type":"Feature","properties":{"DISTRICT":"Kolkata","district":"Kolkata","STATE":"West Bengal","state":"West Bengal","district_id":"kolkata","cgwb_class":"Critical","coastal":true},"geometry":{"type":"Polygon","coordinates":[[[88.7939,22.5726],[88.7237,22.7326],[88.5119,22.744],[88.3964,22.7042],[88.3063,22.8057],[88.1831,22.7819],[88.096,22.6917],[87.9376,22.5726],[87.9966,22.4093],[88.2051,22.3887],[88.328,22.4272],[88.4058,22.4029],[88.5676,22.3367],[88.6879,22.4285],[88.7939,22.5726]]]}},{"type":"Feature","properties":{"DISTRICT":"Murshidabad","district":"Murshidabad","STATE":"West Bengal","state":"West Bengal","district_id":"murshidabad","cgwb_class":"Semi-Critical","coastal":false},"geometry":{"type":"Polygon","coordinates":[[[88.6924,24.18],[88.4863,24.275],[88.3574,24.2799],[88.35,24.4997],[88.1633,24.6065],[87.9974,24.4918],[87.8726,24.3546],[87.8898,24.18],[88.0183,24.0694],[88.1478,24.0402],[88.2138,23.9555],[88.3808,23.7371],[88.598,23.8048],[88.6044,24.0331],[88.6924,24.18]]]}},{"type":"Feature","properties":{"DISTRICT":"North 24 Parganas","district":"North 24 Parganas","STATE":"West Bengal","state":"West Bengal","district_id":"24_parganas_north","cgwb_class":"Critical","coastal":true},"geometry":{"type":"Polygon","coordinates":[[[88.841,22.85],[88.7542,22.9406],[88.8419,23.1873],[88.6872,23.4041],[88.4326,23.3241],[88.3123,23.1246],[88.299,22.9614],[88.2265,22.85],[88.2558,22.7194],[88.326,22.5912],[88.4156,22.3073],[88.6853,22.3037],[88.7695,22.5963],[88.7933,22.742],[88.841,22.85]]]}},{"type":"Feature","properties":{"DISTRICT":"Khordha","district":"Khordha","STATE":"Odisha","state":"Odisha","district_id":"bhubaneswar","cgwb_class":"Semi-Critical","coastal":true},"geometry":{"type":"Polygon","coordinates":[[[86.1447,20.2961],[86.2211,20.4752],[86.1359,20.6623],[85.9188,20.6835],[85.7688,20.5249],[85.7284,20.4092],[85.537,20.426],[85.4104,20.2961],[85.481,20.141],[85.5275,19.9468],[85.7244,19.8849],[85.8818,20.0607],[85.9361,20.1648],[86.0501,20.1942],[86.1447,20.2961]]]}},{"type":"Feature","properties":{"DISTRICT":"Cuttack","district":"Cuttack","STATE":"Odisha","state":"Odisha","district_id":"cuttack","cgwb_class":"Safe","coastal":false},"geometry":{"type":"Polygon","coordinates":[[[86.3291,20.4625],[86.2325,20.6202],[86.1026,20.7205],[85.9352,20.6766],[85.8483,20.6049],[85.6477,20.739],[85.4123,20.6749],[85.4559,20.4625],[85.5409,20.3081],[85.6795,20.2235],[85.8277,20.2355],[85.9328,20.2581],[86.0645,20.2492],[86.3374,20.2575],[86.3291,20.4625]]]}},{"type":"Feature","properties":{"DISTRICT":"Puri","district":"Puri","STATE":"Odisha","state":"Odisha","district_id":"puri","cgwb_class":"Safe","coastal":true},"geometry":{"type":"Polygon","coordinates":[[[86.0558,19.8134],[86.0558,19.915],[85.9921,20.0028],[85.8802,20.0143],[85.746,20.1659],[85.5236,20.1767],[85.4881,19.969],[85.58,19.8134],[85.66,19.7357],[85.6735,19.627],[85.7625,19.5291],[85.9023,19.5217],[86.1149,19.4791],[86.2427,19.6271],[86.0558,19.8134]]]}},{"type":"Feature","properties":{"DISTRICT":"Kamrup Metropolitan","district":"Kamrup Metropolitan","STATE":"Assam","state":"Assam","district_id":"guwahati","cgwb_class":"Safe","coastal":false},"geometry":{"type":"Polygon","coordinates":[[[91.9599,26.1445],[92.0568,26.2831],[91.9552,26.391],[91.8298,26.5126],[91.6361,26.5384],[91.5174,26.3908],[91.5438,26.2277],[91.5847,26.1445],[91.4457,26.0189],[91.4543,25.8272],[91.6513,25.8105],[91.8263,25.7901],[91.9781,25.8722],[91.931,26.0603],[91.9599,26.1445]]]}},{"type":"Feature","properties":{"DISTRICT":"Dibrugarh","district":"Dibrugarh","STATE":"Assam","state":"Assam","district_id":"dibrugarh","cgwb_class":"Safe","coastal":false},"geometry":{"type":"Polygon","coordinates":[[[95.3976,27.4728],[95.3669,27.6672],[95.1931,27.7856],[94.9922,27.7845],[94.8416,27.7463],[94.7492,27.654],[94.7241,27.5531],[94.4876,27.4728],[94.3795,27.2453],[94.6368,27.1666],[94.8372,27.182],[94.9801,27.2081],[95.0731,27.2935],[95.1652,27.3646],[95.3976,27.4728]]]}},{"type":"Feature","properties":{"DISTRICT":"Imphal West","district":"Imphal West","STATE":"Manipur","state":"Manipur","district_id":"imphal","cgwb_class":"Safe","coastal":false},"geometry":{"type":"Polygon","coordinates":[[[94.3368,24.817],[94.2074,24.9353],[94.0386,24.9328],[93.9795,24.9868],[93.8788,25.0476],[93.7885,24.9858],[93.628,24.952],[93.5085,24.817],[93.6632,24.6974],[93.8237,24.6882],[93.9015,24.6767],[93.9894,24.6078],[94.1351,24.5913],[94.2149,24.6955],[94.3368,24.817]]]}},{"type":"Feature","properties":{"DISTRICT":"Aizawl","district":"Aizawl","STATE":"Mizoram","state":"Mizoram","district_id":"aizawl","cgwb_class":"Safe","coastal":false},"geometry":{"type":"Polygon","coordinates":[[[93.0016,23.7271],[92.8253,23.7746],[92.8428,23.8709],[92.8002,24.0585],[92.6376,24.0478],[92.4892,23.9893],[92.38,23.8759],[92.4417,23.7271],[92.5551,23.6554],[92.6173,23.612],[92.6474,23.4456],[92.8177,23.3258],[92.9392,23.4727],[92.9995,23.6028],[93.0016,23.7271]]]}},{"type":"Feature","properties":{"DISTRICT":"East Khasi Hills","district":"East Khasi Hills","STATE":"Meghalaya","state":"Meghalaya","district_id":"shillong","cgwb_class":"Safe","coastal":false},"geometry":{"type":"Polygon","coordinates":[[[92.0537,25.5788],[92.1315,25.6823],[92.1899,25.9143],[91.9964,25.9864],[91.8119,25.9005],[91.7206,25.7741],[91.6722,25.6748],[91.6381,25.5788],[91.6774,25.485],[91.6471,25.3004],[91.7734,25.1051],[91.9771,25.2476],[92.0421,25.4105],[92.1161,25.482],[92.0537,25.5788]]]}},{"type":"Feature","properties":{"DISTRICT":"West Tripura","district":"West Tripura","STATE":"Tripura","state":"Tripura","district_id":"agartala","cgwb_class":"Safe","coastal":false},"geometry":{"type":"Polygon","coordinates":[[[91.5958,23.8315],[91.6771,24.0034],[91.5428,24.1251],[91.3508,24.0881],[91.2524,23.9693],[91.164,23.9723],[90.9936,23.9607],[90.9746,23.8315],[90.9566,23.686],[91.0106,23.5147],[91.2204,23.5652],[91.323,23.6866],[91.3984,23.7035],[91.5443,23.7181],[91.5958,23.8315]]]}},{"type":"Feature","properties":{"DISTRICT":"North Goa","district":"North Goa","STATE":"Goa","state":"Goa","district_id":"north_goa","cgwb_class":"Safe","coastal":true},"geometry":{"type":"Polygon","coordinates":[[[74.4278,15.5524],[74.3682,15.6658],[74.2539,15.7095],[74.1475,15.652],[74.0853,15.7151],[73.9132,15.8069],[73.8341,15.6868],[73.8488,15.5524],[73.8792,15.4389],[73.9995,15.4021],[74.0914,15.4153],[74.1599,15.4004],[74.2977,15.3425],[74.4706,15.3916],[74.4278,15.5524]]]}},{"type":"Feature","properties":{"DISTRICT":"South Goa","district":"South Goa","STATE":"Goa","state":"Goa","district_id":"south_goa","cgwb_class":"Safe","coastal":true},"geometry":{"type":"Polygon","coordinates":[[[74.1974,15.17],[74.1985,15.2622],[74.102,15.2935],[74.0511,15.386],[73.912,15.5421],[73.7715,15.4466],[73.7738,15.2751],[73.8134,15.17],[73.8382,15.0948],[73.8593,14.9997],[73.9474,14.9475],[74.0708,14.8707],[74.2585,14.8571],[74.252,15.0529],[74.1974,15.17]]]}},{"type":"Feature","properties":{"DISTRICT":"Puducherry","district":"Puducherry","STATE":"Puducherry","state":"Puducherry","district_id":"puducherry","cgwb_class":"Saline","coastal":true},"geometry":{"type":"Polygon","coordinates":[[[79.9973,11.9416],[79.9879,12.0262],[79.9456,12.11],[79.872,12.2146],[79.7519,12.1835],[79.7052,12.068],[79.7205,11.983],[79.6724,11.9416],[79.5877,11.8377],[79.6575,11.7566],[79.7564,11.7193],[79.8683,11.6844],[79.9219,11.8022],[79.893,11.9017],[79.9973,11.9416]]]}},{"type":"Feature","properties":{"DISTRICT":"Dehradun","district":"Dehradun","STATE":"Uttarakhand","state":"Uttarakhand","district_id":"dehradun","cgwb_class":"Safe","coastal":false},"geometry":{"type":"Polygon","coordinates":[[[78.5193,30.3165],[78.4436,30.4875],[78.2931,30.5989],[78.1092,30.6076],[77.9691,30.555],[77.9126,30.446],[77.7744,30.4237],[77.4918,30.3165],[77.5742,30.1261],[77.8064,30.0721],[77.955,30.0246],[78.0939,30.0833],[78.1766,30.1602],[78.2987,30.2057],[78.5193,30.3165]]]}},{"type":"Feature","properties":{"DISTRICT":"Raipur","district":"Raipur","STATE":"Chhattisgarh","state":"Chhattisgarh","district_id":"raipur","cgwb_class":"Safe","coastal":false},"geometry":{"type":"Polygon","coordinates":[[[82.1159,21.2514],[81.9115,21.3779],[81.7767,21.4233],[81.7018,21.5463],[81.5609,21.532],[81.4008,21.5188],[81.1057,21.4865],[81.107,21.2514],[81.3523,21.1269],[81.4837,21.0809],[81.5704,21.0098],[81.7124,20.9133],[81.8862,20.9515],[82.0469,21.0641],[82.1159,21.2514]]]}}]}